[
  {
    "name": "STARLINK-37361",
    "noradId": "69134",
    "line1": "1 69134U 26110L   26167.25002315 -.00025452  00000+0 -78818-3 0  9997",
    "line2": "2 69134  97.2844   3.6837 0002040  88.3045 351.9416 15.33463895  5506"
  },
  {
    "name": "STARLINK-37372",
    "noradId": "69135",
    "line1": "1 69135U 26110M   26167.25002315 -.03056535  00000+0 -83947-1 0  9994",
    "line2": "2 69135  97.2844   3.6763 0001667  43.4891   7.9083 15.41131878  5500"
  },
  {
    "name": "STARLINK-37531",
    "noradId": "69136",
    "line1": "1 69136U 26110N   26167.25002315 -.00028591  00000+0 -88667-3 0  9999",
    "line2": "2 69136  97.2844   3.6937 0001760  94.6537  15.6223 15.33441733  5500"
  },
  {
    "name": "STARLINK-37662",
    "noradId": "69137",
    "line1": "1 69137U 26110P   26167.25002315 -.00734143  00000+0 -19223-1 0  9997",
    "line2": "2 69137  97.2843   3.6793 0001132  97.1495 318.0273 15.41143050  5509"
  },
  {
    "name": "STARLINK-37658",
    "noradId": "69138",
    "line1": "1 69138U 26110Q   26167.26814322  .00023992  00000+0  44114-3 0  9998",
    "line2": "2 69138  97.2857   3.6244 0001377 116.5476 243.5916 15.49210014  5466"
  },
  {
    "name": "STARLINK-37659",
    "noradId": "69139",
    "line1": "1 69139U 26110R   26167.27584785  .00037264  00000+0  68219-3 0  9996",
    "line2": "2 69139  97.2848   3.6124 0001961  92.7944 267.3531 15.49246474  5464"
  },
  {
    "name": "STARLINK-37653",
    "noradId": "69140",
    "line1": "1 69140U 26110S   26167.08453051  .00045700  00000+0  83714-3 0  9999",
    "line2": "2 69140  97.2823   3.4141 0002175  94.4728 265.6772 15.49185520  5432"
  },
  {
    "name": "STARLINK-37654",
    "noradId": "69141",
    "line1": "1 69141U 26110T   26166.52422448  .00038342  00000+0  70164-3 0  9993",
    "line2": "2 69141  97.2827   2.9503 0001818  88.7991 271.3469 15.49252690  5355"
  },
  {
    "name": "STARLINK-37655",
    "noradId": "69142",
    "line1": "1 69142U 26110U   26167.25002315 -.00011253  00000+0 -31003-3 0  9995",
    "line2": "2 69142  97.2851   3.7106 0001485  96.0459  51.4804 15.36958465  5508"
  },
  {
    "name": "STARLINK-37636",
    "noradId": "69143",
    "line1": "1 69143U 26110V   26167.25002315 -.00019219  00000+0 -59470-3 0  9994",
    "line2": "2 69143  97.2848   3.7398 0002155  79.6406 135.5587 15.33432634  5506"
  },
  {
    "name": "STARLINK-37638",
    "noradId": "69144",
    "line1": "1 69144U 26110W   26167.25002315 -.00017319  00000+0 -53514-3 0  9997",
    "line2": "2 69144  97.2851   3.7471 0001437  81.9261 148.3466 15.33456796  5503"
  },
  {
    "name": "STARLINK-37657",
    "noradId": "69145",
    "line1": "1 69145U 26110X   26167.10578472 -.00648296  00000+0 -13300-1 0  9995",
    "line2": "2 69145  97.2837   3.5380 0003799 100.4915 259.6764 15.48365546  5449"
  },
  {
    "name": "STARLINK-37639",
    "noradId": "69146",
    "line1": "1 69146U 26110Y   26167.25002315 -.00020559  00000+0 -63611-3 0  9998",
    "line2": "2 69146  97.2849   3.7597 0001685  85.2243 175.0606 15.33449395  5558"
  },
  {
    "name": "STARLINK-37661",
    "noradId": "69147",
    "line1": "1 69147U 26110Z   26166.99803199  .00028611  00000+0  52531-3 0  9992",
    "line2": "2 69147  97.2846   3.3767 0001235  85.8097 274.3295 15.49216707  5424"
  },
  {
    "name": "STARLINK-37395",
    "noradId": "69148",
    "line1": "1 69148U 26111A   26167.25002315 -.00742403  00000+0 -88218-2 0  9999",
    "line2": "2 69148  53.1598 156.7031 0001253  74.1403  65.5117 15.62898521  5393"
  },
  {
    "name": "STARLINK-37346",
    "noradId": "69149",
    "line1": "1 69149U 26111B   26167.25002315  .00024751  00000+0  45197-3 0  9997",
    "line2": "2 69149  53.1597 157.2996 0001427  84.5371 120.6804 15.49289842  5392"
  },
  {
    "name": "STARLINK-37332",
    "noradId": "69150",
    "line1": "1 69150U 26111C   26167.25002315  .00017607  00000+0  32411-3 0  9996",
    "line2": "2 69150  53.1594 157.6248 0001298  80.5191 323.8924 15.49292110  5399"
  },
  {
    "name": "STARLINK-37297",
    "noradId": "69151",
    "line1": "1 69151U 26111D   26167.25002315 -.02512774  00000+0 -35475-1 0  9997",
    "line2": "2 69151  53.1600 156.6507 0001607  74.0544  91.2686 15.59725218  5391"
  },
  {
    "name": "STARLINK-37317",
    "noradId": "69152",
    "line1": "1 69152U 26111E   26167.25002315 -.02497200  00000+0 -29349-1 0  9997",
    "line2": "2 69152  53.1599 156.5033 0001467  97.0805 140.2192 15.64363395  5398"
  },
  {
    "name": "STARLINK-37374",
    "noradId": "69153",
    "line1": "1 69153U 26111F   26167.19327447  .00039887  00000+0  72081-3 0  9999",
    "line2": "2 69153  53.1602 158.0723 0000958 104.0559 256.0557 15.49338717  4085"
  },
  {
    "name": "STARLINK-37235",
    "noradId": "69154",
    "line1": "1 69154U 26111G   26167.21466927  .00056812  00000+0  10208-2 0  9999",
    "line2": "2 69154  53.1587 158.2132 0000742  98.7865 261.3229 15.49344552  4083"
  },
  {
    "name": "STARLINK-37329",
    "noradId": "69155",
    "line1": "1 69155U 26111H   26167.25002315 -.02549945  00000+0 -30313-1 0  9997",
    "line2": "2 69155  53.1596 156.5084 0001420  95.3153 139.7318 15.64159161  5397"
  },
  {
    "name": "STARLINK-37345",
    "noradId": "69156",
    "line1": "1 69156U 26111J   26167.25002315 -.02559339  00000+0 -28468-1 0  9994",
    "line2": "2 69156  53.1596 156.4569 0001302  99.9640 160.3035 15.65823186  5409"
  },
  {
    "name": "STARLINK-37353",
    "noradId": "69157",
    "line1": "1 69157U 26111K   26167.25002315 -.02549570  00000+0 -28002-1 0  9995",
    "line2": "2 69157  53.1593 156.4499 0001332  98.8327 164.8273 15.66119730  5409"
  },
  {
    "name": "STARLINK-37363",
    "noradId": "69158",
    "line1": "1 69158U 26111L   26167.25002315 -.02519193  00000+0 -27882-1 0  9999",
    "line2": "2 69158  53.1594 156.4531 0001269 101.8338 159.8935 15.65885721  5402"
  },
  {
    "name": "STARLINK-37343",
    "noradId": "69159",
    "line1": "1 69159U 26111M   26167.19341149  .00076863  00000+0  13732-2 0  9992",
    "line2": "2 69159  53.1601 158.0719 0001252 136.0278 224.0831 15.49377416  4085"
  },
  {
    "name": "STARLINK-37328",
    "noradId": "69160",
    "line1": "1 69160U 26111N   26167.25002315 -.02529115  00000+0 -27149-1 0  9993",
    "line2": "2 69160  53.1594 156.4160 0001350  97.8604 182.1379 15.66649694  5403"
  },
  {
    "name": "STARLINK-37311",
    "noradId": "69161",
    "line1": "1 69161U 26111P   26167.25002315 -.02522768  00000+0 -23959-1 0  9996",
    "line2": "2 69161  53.1592 156.5153 0001230 100.8576 130.6581 15.69598871  5401"
  },
  {
    "name": "STARLINK-36286",
    "noradId": "69162",
    "line1": "1 69162U 26111Q   26167.25002315 -.02601157  00000+0 -40251-1 0  9991",
    "line2": "2 69162  53.1598 156.7465 0001053  66.9129  50.6864 15.56843907  5409"
  },
  {
    "name": "STARLINK-37196",
    "noradId": "69163",
    "line1": "1 69163U 26111R   26165.56034997  .00136844  00000+0  77789-3 0  9995",
    "line2": "2 69163  53.1566 164.9214 0001435  48.8780 311.2365 15.78098124  3849"
  }
]