OBJECT_NAME,OBJECT_ID,EPOCH,MEAN_MOTION,ECCENTRICITY,INCLINATION,RA_OF_ASC_NODE,ARG_OF_PERICENTER,MEAN_ANOMALY,EPHEMERIS_TYPE,CLASSIFICATION_TYPE,NORAD_CAT_ID,ELEMENT_SET_NO,REV_AT_EPOCH,BSTAR,MEAN_MOTION_DOT,MEAN_MOTION_DDOT
STARLINK-37361,2026-110L,2026-06-16T06:00:02.000160,15.33463895,.00020404,97.2844,3.6837,88.3045,351.9416,0,U,69134,999,550,-.78817785E-3,-.25452E-3,0
STARLINK-37372,2026-110M,2026-06-16T06:00:02.000160,15.41131878,.00016674,97.2844,3.6763,43.4891,7.9083,0,U,69135,999,550,-.83947003E-1,-.3056535E-1,0
STARLINK-37531,2026-110N,2026-06-16T06:00:02.000160,15.33441733,.00017602,97.2844,3.6937,94.6537,15.6223,0,U,69136,999,550,-.88666914E-3,-.28591E-3,0
STARLINK-37662,2026-110P,2026-06-16T06:00:02.000160,15.41143050,.00011327,97.2843,3.6793,97.1495,318.0273,0,U,69137,999,550,-.19223079E-1,-.734143E-2,0
STARLINK-37658,2026-110Q,2026-06-16T06:26:07.574208,15.49210014,.00013773,97.2857,3.6244,116.5476,243.5916,0,U,69138,999,546,.44113773E-3,.23992E-3,0
STARLINK-37659,2026-110R,2026-06-16T06:37:13.254240,15.49246474,.00019614,97.2848,3.6124,92.7944,267.3531,0,U,69139,999,546,.68218618E-3,.37264E-3,0
STARLINK-37653,2026-110S,2026-06-16T02:01:43.436064,15.49185520,.00021758,97.2823,3.4141,94.4728,265.6772,0,U,69140,999,543,.83713753E-3,.457E-3,0
STARLINK-37654,2026-110T,2026-06-15T12:34:52.995072,15.49252690,.00018186,97.2827,2.9503,88.7991,271.3469,0,U,69141,999,535,.70164466E-3,.38342E-3,0
STARLINK-37655,2026-110U,2026-06-16T06:00:02.000160,15.36958465,.00014857,97.2851,3.7106,96.0459,51.4804,0,U,69142,999,550,-.31003163E-3,-.11253E-3,0
STARLINK-37636,2026-110V,2026-06-16T06:00:02.000160,15.33432634,.00021557,97.2848,3.7398,79.6406,135.5587,0,U,69143,999,550,-.59469626E-3,-.19219E-3,0
STARLINK-37638,2026-110W,2026-06-16T06:00:02.000160,15.33456796,.00014374,97.2851,3.7471,81.9261,148.3466,0,U,69144,999,550,-.53514138E-3,-.17319E-3,0
STARLINK-37657,2026-110X,2026-06-16T02:32:19.799808,15.48365546,.0003799,97.2837,3.5380,100.4915,259.6764,0,U,69145,999,544,-.13300417E-1,-.648296E-2,0
STARLINK-37639,2026-110Y,2026-06-16T06:00:02.000160,15.33449395,.00016853,97.2849,3.7597,85.2243,175.0606,0,U,69146,999,555,-.63611467E-3,-.20559E-3,0
STARLINK-37661,2026-110Z,2026-06-15T23:57:09.963936,15.49216707,.00012351,97.2846,3.3767,85.8097,274.3295,0,U,69147,999,542,.52530786E-3,.28611E-3,0
STARLINK-37395,2026-111A,2026-06-16T06:00:02.000160,15.62898521,.0001253,53.1598,156.7031,74.1403,65.5117,0,U,69148,999,539,-.88218111E-2,-.742403E-2,0
STARLINK-37346,2026-111B,2026-06-16T06:00:02.000160,15.49289842,.00014272,53.1597,157.2996,84.5371,120.6804,0,U,69149,999,539,.4519678E-3,.24751E-3,0
STARLINK-37332,2026-111C,2026-06-16T06:00:02.000160,15.49292110,.00012988,53.1594,157.6248,80.5191,323.8924,0,U,69150,999,539,.32410739E-3,.17607E-3,0
STARLINK-37297,2026-111D,2026-06-16T06:00:02.000160,15.59725218,.00016079,53.1600,156.6507,74.0544,91.2686,0,U,69151,999,539,-.35475021E-1,-.2512774E-1,0
STARLINK-37317,2026-111E,2026-06-16T06:00:02.000160,15.64363395,.0001467,53.1599,156.5033,97.0805,140.2192,0,U,69152,999,539,-.29348737E-1,-.24972E-1,0
STARLINK-37374,2026-111F,2026-06-16T04:38:18.914208,15.49338717,.00009586,53.1602,158.0723,104.0559,256.0557,0,U,69153,999,408,.72081013E-3,.39887E-3,0
STARLINK-37235,2026-111G,2026-06-16T05:09:07.424928,15.49344552,.00007422,53.1587,158.2132,98.7865,261.3229,0,U,69154,999,408,.10208445E-2,.56812E-3,0
STARLINK-37329,2026-111H,2026-06-16T06:00:02.000160,15.64159161,.000142,53.1596,156.5084,95.3153,139.7318,0,U,69155,999,539,-.30312897E-1,-.2549945E-1,0
STARLINK-37345,2026-111J,2026-06-16T06:00:02.000160,15.65823186,.00013027,53.1596,156.4569,99.9640,160.3035,0,U,69156,999,540,-.28467764E-1,-.2559339E-1,0
STARLINK-37353,2026-111K,2026-06-16T06:00:02.000160,15.66119730,.00013326,53.1593,156.4499,98.8327,164.8273,0,U,69157,999,540,-.28002088E-1,-.254957E-1,0
STARLINK-37363,2026-111L,2026-06-16T06:00:02.000160,15.65885721,.00012699,53.1594,156.4531,101.8338,159.8935,0,U,69158,999,540,-.27882494E-1,-.2519193E-1,0
STARLINK-37343,2026-111M,2026-06-16T04:38:30.752736,15.49377416,.00012521,53.1601,158.0719,136.0278,224.0831,0,U,69159,999,408,.137319E-2,.76863E-3,0
STARLINK-37328,2026-111N,2026-06-16T06:00:02.000160,15.66649694,.00013504,53.1594,156.4160,97.8604,182.1379,0,U,69160,999,540,-.27149268E-1,-.2529115E-1,0
STARLINK-37311,2026-111P,2026-06-16T06:00:02.000160,15.69598871,.00012302,53.1592,156.5153,100.8576,130.6581,0,U,69161,999,540,-.23959055E-1,-.2522768E-1,0
STARLINK-36286,2026-111Q,2026-06-16T06:00:02.000160,15.56843907,.00010532,53.1598,156.7465,66.9129,50.6864,0,U,69162,999,540,-.40251218E-1,-.2601157E-1,0
STARLINK-37196,2026-111R,2026-06-14T13:26:54.237408,15.78098124,.0001435,53.1566,164.9214,48.8780,311.2365,0,U,69163,999,384,.77789E-3,.136844E-2,0
